[{"OBJECT_NAME":"STARLINK-5030","OBJECT_ID":"2023-014AD","EPOCH":"2026-03-09T21:37:59.174112","MEAN_MOTION":14.98326009,"ECCENTRICITY":0.00033298,"INCLINATION":69.9989,"RA_OF_ASC_NODE":83.9359,"ARG_OF_PERICENTER":270.0757,"MEAN_ANOMALY":90.0021,"EPHEMERIS_TYPE":0,"CLASSIFICATION_TYPE":"U","NORAD_CAT_ID":55418,"ELEMENT_SET_NO":999,"REV_AT_EPOCH":17159,"BSTAR":-2.2686753e-5,"MEAN_MOTION_DOT":-3.64e-6,"MEAN_MOTION_DDOT":0},{"OBJECT_NAME":"TURKSAT-3USAT","OBJECT_ID":"2013-018C","EPOCH":"2026-03-09T19:52:59.932416","MEAN_MOTION":14.95734186,"ECCENTRICITY":0.00131837,"INCLINATION":97.7913,"RA_OF_ASC_NODE":160.1317,"ARG_OF_PERICENTER":74.0986,"MEAN_ANOMALY":286.1687,"EPHEMERIS_TYPE":0,"CLASSIFICATION_TYPE":"U","NORAD_CAT_ID":39152,"ELEMENT_SET_NO":999,"REV_AT_EPOCH":69623,"BSTAR":0.00039789997,"MEAN_MOTION_DOT":4.382e-5,"MEAN_MOTION_DDOT":0}]
